{"type": "FeatureCollection", "features": [ {"type": "Feature", "properties": {"norad_id": 31984, "name": "FENGYUN 1C DEB", "group": "fengyun-1c-debris", "lat": -5.370344434348629, "lon": -7.427165604668805, "alt_km": 847.0815176752849, "timestamp": "2025-12-13T10:41:26.051382+00:00", "meta": {"OBJECT_NAME": "FENGYUN 1C DEB", "OBJECT_ID": "1999-025CPM", "EPOCH": "2025-12-02T19:53:15.322848", "MEAN_MOTION": 14.2293256, "ECCENTRICITY": 0.00625309, "INCLINATION": 98.5577, "RA_OF_ASC_NODE": 341.445, "ARG_OF_PERICENTER": 256.5759, "MEAN_ANOMALY": 102.8445, "EPHEMERIS_TYPE": 0, "CLASSIFICATION_TYPE": "U", "NORAD_CAT_ID": 31984, "ELEMENT_SET_NO": 999, "REV_AT_EPOCH": 94232, "BSTAR": 0.00049073387, "MEAN_MOTION_DOT": 1.083e-05, "MEAN_MOTION_DDOT": 0}, "tle": {"line1": "1 31984U 99025CPM 25336.82864957  .00001083  00000+0  49073-3 0  9995", "line2": "2 31984  98.5577 341.4450 0062530 256.5759 102.8445 14.22932560942322"}}, "geometry": {"type": "Point", "coordinates": [-7.427165604668805, -5.370344434348629]}}, {"type": "Feature", "properties": {"norad_id": 31985, "name": "FENGYUN 1C DEB", "group": "fengyun-1c-debris", "lat": 51.89097394538959, "lon": 79.24169882206203, "alt_km": 859.0585883072772, "timestamp": "2025-12-13T10:41:26.051392+00:00", "meta": {"OBJECT_NAME": "FENGYUN 1C DEB", "OBJECT_ID": "1999-025CPN", "EPOCH": "2025-12-10T12:53:19.926816", "MEAN_MOTION": 14.22969288, "ECCENTRICITY": 0.0150474, "INCLINATION": 98.2197, "RA_OF_ASC_NODE": 245.9057, "ARG_OF_PERICENTER": 253.2577, "MEAN_ANOMALY": 105.2044, "EPHEMERIS_TYPE": 0, "CLASSIFICATION_TYPE": "U", "NORAD_CAT_ID": 31985, "ELEMENT_SET_NO": 999, "REV_AT_EPOCH": 95579, "BSTAR": 0.00055157, "MEAN_MOTION_DOT": 1.353e-05, "MEAN_MOTION_DDOT": 0}, "tle": {"line1": "1 31985U 99025CPN 25344.53703619  .00001353  00000+0  55157-3 0  9990", "line2": "2 31985  98.2197 245.9057 0150474 253.2577 105.2044 14.22969288955790"}}, "geometry": {"type": "Point", "coordinates": [79.24169882206203, 51.89097394538959]}}, {"type": "Feature", "properties": {"norad_id": 31987, "name": "FENGYUN 1C DEB", "group": "fengyun-1c-debris", "lat": -31.901890160740308, "lon": -33.21781048822518, "alt_km": 784.6457422729864, "timestamp": "2025-12-13T10:41:26.051402+00:00", "meta": {"OBJECT_NAME": "FENGYUN 1C DEB", "OBJECT_ID": "1999-025CPQ", "EPOCH": "2025-12-12T21:40:37.059744", "MEAN_MOTION": 14.44914051, "ECCENTRICITY": 0.005148, "INCLINATION": 99.0394, "RA_OF_ASC_NODE": 320.5185, "ARG_OF_PERICENTER": 157.0787, "MEAN_ANOMALY": 231.6684, "EPHEMERIS_TYPE": 0, "CLASSIFICATION_TYPE": "U", "NORAD_CAT_ID": 31987, "ELEMENT_SET_NO": 999, "REV_AT_EPOCH": 96372, "BSTAR": 0.0015029844, "MEAN_MOTION_DOT": 5.274e-05, "MEAN_MOTION_DDOT": 0}, "tle": {"line1": "1 31987U 99025CPQ 25346.90320671  .00005274  00000+0  15030-2 0  9999", "line2": "2 31987  99.0394 320.5185 0051480 157.0787 231.6684 14.44914051963721"}}, "geometry": {"type": "Point", "coordinates": [-33.21781048822518, -31.901890160740308]}}, {"type": "Feature", "properties": {"norad_id": 31989, "name": "FENGYUN 1C DEB", "group": "fengyun-1c-debris", "lat": 45.467919437899006, "lon": -121.90969992326602, "alt_km": 992.6348152424334, "timestamp": "2025-12-13T10:41:26.051412+00:00", "meta": {"OBJECT_NAME": "FENGYUN 1C DEB", "OBJECT_ID": "1999-025CPS", "EPOCH": "2025-12-12T03:10:08.306112", "MEAN_MOTION": 13.93586415, "ECCENTRICITY": 0.01152546, "INCLINATION": 99.2136, "RA_OF_ASC_NODE": 47.2857, "ARG_OF_PERICENTER": 300.7943, "MEAN_ANOMALY": 87.624, "EPHEMERIS_TYPE": 0, "CLASSIFICATION_TYPE": "U", "NORAD_CAT_ID": 31989, "ELEMENT_SET_NO": 999, "REV_AT_EPOCH": 93709, "BSTAR": 0.00074512578, "MEAN_MOTION_DOT": 9.88e-06, "MEAN_MOTION_DDOT": 0}, "tle": {"line1": "1 31989U 99025CPS 25346.13204058  .00000988  00000+0  74513-3 0  9995", "line2": "2 31989  99.2136  47.2857 0115254 300.7943  87.6240 13.93586415937099"}}, "geometry": {"type": "Point", "coordinates": [-121.90969992326602, 45.467919437899006]}}, {"type": "Feature", "properties": {"norad_id": 31990, "name": "FENGYUN 1C DEB", "group": "fengyun-1c-debris", "lat": 42.763366306215495, "lon": -161.53089458836894, "alt_km": 906.124756731575, "timestamp": "2025-12-13T10:41:26.051427+00:00", "meta": {"OBJECT_NAME": "FENGYUN 1C DEB", "OBJECT_ID": "1999-025CPT", "EPOCH": "2025-12-12T20:44:20.525280", "MEAN_MOTION": 13.57202402, "ECCENTRICITY": 0.02601972, "INCLINATION": 99.1607, "RA_OF_ASC_NODE": 9.345, "ARG_OF_PERICENTER": 184.2325, "MEAN_ANOMALY": 355.5919, "EPHEMERIS_TYPE": 0, "CLASSIFICATION_TYPE": "U", "NORAD_CAT_ID": 31990, "ELEMENT_SET_NO": 999, "REV_AT_EPOCH": 62773, "BSTAR": 0.00037754955, "MEAN_MOTION_DOT": 2.95e-06, "MEAN_MOTION_DDOT": 0}, "tle": {"line1": "1 31990U 99025CPT 25346.86412645  .00000295  00000+0  37755-3 0  9998", "line2": "2 31990  99.1607   9.3450 0260197 184.2325 355.5919 13.57202402627735"}}, "geometry": {"type": "Point", "coordinates": [-161.53089458836894, 42.763366306215495]}}, {"type": "Feature", "properties": {"norad_id": 31991, "name": "FENGYUN 1C DEB", "group": "fengyun-1c-debris", "lat": 8.267185968394825, "lon": -1.9758472145513732, "alt_km": 1119.6195203708176, "timestamp": "2025-12-13T10:41:26.051442+00:00", "meta": {"OBJECT_NAME": "FENGYUN 1C DEB", "OBJECT_ID": "1999-025CPU", "EPOCH": "2025-12-10T18:22:22.024416", "MEAN_MOTION": 13.6127752, "ECCENTRICITY": 0.02446272, "INCLINATION": 100.4864, "RA_OF_ASC_NODE": 173.6062, "ARG_OF_PERICENTER": 58.2006, "MEAN_ANOMALY": 304.2706, "EPHEMERIS_TYPE": 0, "CLASSIFICATION_TYPE": "U", "NORAD_CAT_ID": 31991, "ELEMENT_SET_NO": 999, "REV_AT_EPOCH": 62060, "BSTAR": 0.00020963887, "MEAN_MOTION_DOT": 1.45e-06, "MEAN_MOTION_DDOT": 0}, "tle": {"line1": "1 31991U 99025CPU 25344.76553269  .00000145  00000+0  20964-3 0  9992", "line2": "2 31991 100.4864 173.6062 0244627  58.2006 304.2706 13.61277520620609"}}, "geometry": {"type": "Point", "coordinates": [-1.9758472145513732, 8.267185968394825]}}, {"type": "Feature", "properties": {"norad_id": 31992, "name": "FENGYUN 1C DEB", "group": "fengyun-1c-debris", "lat": -49.14237538818863, "lon": -42.00479071435605, "alt_km": 1072.5877546680686, "timestamp": "2025-12-13T10:41:26.051452+00:00", "meta": {"OBJECT_NAME": "FENGYUN 1C DEB", "OBJECT_ID": "1999-025CPV", "EPOCH": "2025-12-12T04:04:23.293056", "MEAN_MOTION": 13.22988689, "ECCENTRICITY": 0.05424019, "INCLINATION": 99.1658, "RA_OF_ASC_NODE": 306.1111, "ARG_OF_PERICENTER": 30.97, "MEAN_ANOMALY": 332.2249, "EPHEMERIS_TYPE": 0, "CLASSIFICATION_TYPE": "U", "NORAD_CAT_ID": 31992, "ELEMENT_SET_NO": 999, "REV_AT_EPOCH": 53867, "BSTAR": 0.001808457, "MEAN_MOTION_DOT": 1.63e-05, "MEAN_MOTION_DDOT": 0}, "tle": {"line1": "1 31992U 99025CPV 25346.16971404  .00001630  00000+0  18085-2 0  9994", "line2": "2 31992  99.1658 306.1111 0542401  30.9700 332.2249 13.22988689538672"}}, "geometry": {"type": "Point", "coordinates": [-42.00479071435605, -49.14237538818863]}}, {"type": "Feature", "properties": {"norad_id": 31993, "name": "FENGYUN 1C DEB", "group": "fengyun-1c-debris", "lat": -0.6136150283440646, "lon": -40.26503148111049, "alt_km": 1373.41370035185, "timestamp": "2025-12-13T10:41:26.051462+00:00", "meta": {"OBJECT_NAME": "FENGYUN 1C DEB", "OBJECT_ID": "1999-025CPW", "EPOCH": "2025-12-11T18:53:49.022016", "MEAN_MOTION": 13.27449063, "ECCENTRICITY": 0.04216025, "INCLINATION": 99.241, "RA_OF_ASC_NODE": 318.1511, "ARG_OF_PERICENTER": 137.6618, "MEAN_ANOMALY": 225.7867, "EPHEMERIS_TYPE": 0, "CLASSIFICATION_TYPE": "U", "NORAD_CAT_ID": 31993, "ELEMENT_SET_NO": 999, "REV_AT_EPOCH": 88930, "BSTAR": 0.0019186068, "MEAN_MOTION_DOT": 1.364e-05, "MEAN_MOTION_DDOT": 0}, "tle": {"line1": "1 31993U 99025CPW 25345.78737294  .00001364  00000+0  19186-2 0  9996", "line2": "2 31993  99.2410 318.1511 0421602 137.6618 225.7867 13.27449063889303"}}, "geometry": {"type": "Point", "coordinates": [-40.26503148111049, -0.6136150283440646]}}, {"type": "Feature", "properties": {"norad_id": 31994, "name": "FENGYUN 1C DEB", "group": "fengyun-1c-debris", "lat": 12.489767154373633, "lon": -20.33590458938513, "alt_km": 986.7119972570163, "timestamp": "2025-12-13T10:41:26.051473+00:00", "meta": {"OBJECT_NAME": "FENGYUN 1C DEB", "OBJECT_ID": "1999-025CPX", "EPOCH": "2025-12-12T22:35:07.688544", "MEAN_MOTION": 13.95758922, "ECCENTRICITY": 0.01622783, "INCLINATION": 98.5393, "RA_OF_ASC_NODE": 341.1035, "ARG_OF_PERICENTER": 145.5095, "MEAN_ANOMALY": 215.6728, "EPHEMERIS_TYPE": 0, "CLASSIFICATION_TYPE": "U", "NORAD_CAT_ID": 31994, "ELEMENT_SET_NO": 999, "REV_AT_EPOCH": 56799, "BSTAR": 9.9108947e-05, "MEAN_MOTION_DOT": 1.12e-06, "MEAN_MOTION_DDOT": 0}, "tle": {"line1": "1 31994U 99025CPX 25346.94106121  .00000112  00000+0  99109-4 0  9990", "line2": "2 31994  98.5393 341.1035 0162278 145.5095 215.6728 13.95758922567995"}}, "geometry": {"type": "Point", "coordinates": [-20.33590458938513, 12.489767154373633]}}, {"type": "Feature", "properties": {"norad_id": 31997, "name": "FENGYUN 1C DEB", "group": "fengyun-1c-debris", "lat": -68.537284173752, "lon": 176.75429006719995, "alt_km": 837.536001462252, "timestamp": "2025-12-13T10:41:26.051483+00:00", "meta": {"OBJECT_NAME": "FENGYUN 1C DEB", "OBJECT_ID": "1999-025CQA", "EPOCH": "2025-12-11T09:47:13.036128", "MEAN_MOTION": 13.60665403, "ECCENTRICITY": 0.02898133, "INCLINATION": 102.5103, "RA_OF_ASC_NODE": 28.5345, "ARG_OF_PERICENTER": 276.805, "MEAN_ANOMALY": 80.0188, "EPHEMERIS_TYPE": 0, "CLASSIFICATION_TYPE": "U", "NORAD_CAT_ID": 31997, "ELEMENT_SET_NO": 999, "REV_AT_EPOCH": 61665, "BSTAR": 0.0033410301, "MEAN_MOTION_DOT": 3.262e-05, "MEAN_MOTION_DDOT": 0}, "tle": {"line1": "1 31997U 99025CQA 25345.40778977  .00003262  00000+0  33410-2 0  9997", "line2": "2 31997 102.5103  28.5345 0289813 276.8050  80.0188 13.60665403616652"}}, "geometry": {"type": "Point", "coordinates": [176.75429006719995, -68.537284173752]}}]}